ONEWEB-0558             
1 56059U 23043P   25299.46631810  .00001129  00000+0  27030-2 0  9999
2 56059  87.9160 290.6163 0002437  94.8753 265.2659 13.21822462127362
ONEWEB-0559             
1 56060U 23043Q   25299.37909510  .00000191  00000+0  43085-3 0  9993
2 56060  87.9167 290.6265 0001999  98.2306 261.9054 13.21826639127360
ONEWEB-0566             
1 56061U 23043R   25299.44820940  .00000031  00000+0  42908-4 0  9998
2 56061  87.9166 290.6099 0002126  96.4022 263.7354 13.21824512127353
ONEWEB-0568             
1 56062U 23043S   25299.47228620  .00000070  00000+0  15077-3 0  9998
2 56062  87.8991 275.3225 0001937  76.1824 283.9523 13.16595269128221
ONEWEB-0574             
1 56063U 23043T   25299.44160987  .00000044  00000+0  75667-4 0  9990
2 56063  87.9167 290.5999 0001680  87.4221 272.7105 13.21826611127399
ONEWEB-0575             
1 56064U 23043U   25299.46594075  .00000105  00000+0  24174-3 0  9996
2 56064  87.8985 275.3262 0001558  75.7588 284.3716 13.16595258128214
ONEWEB-0576             
1 56065U 23043V   25299.44695785  .00000078  00000+0  17134-3 0  9992
2 56065  87.8990 275.3282 0001853  79.1195 281.0145 13.16594140128201
ONEWEB-0577             
1 56066U 23043W   25299.37729296  .00000121  00000+0  28263-3 0  9994
2 56066  87.8987 275.3423 0001317  71.8641 288.2633 13.16593443128223
